ONEWEB-0572             
1 55151U 23004M   26191.45206562  .00000071  00000+0  15082-3 0  9991
2 55151  87.9136   1.2365 0002016  92.3467 267.7896 13.17650940170548
ONEWEB-0573             
1 55152U 23004N   26190.65028444 -.00000057  00000+0 -17719-3 0  9999
2 55152  87.9180 331.0011 0002727 100.7847 259.3592 13.18687007172654
ONEWEB-0588             
1 55153U 23004P   26190.64355452  .00000066  00000+0  13385-3 0  9994
2 55153  87.9179 331.0018 0002230  86.8229 273.3158 13.18686933172658
ONEWEB-0598             
1 55154U 23004Q   26190.51522306  .00000445  00000+0  12191-2 0  9999
2 55154  87.8879  16.6221 0002410 102.2282 257.9116 13.11415117168822
ONEWEB-0599             
1 55155U 23004R   26190.50200998  .00000028  00000+0  39124-4 0  9993
2 55155  87.9132   1.4242 0001795  98.5293 261.6042 13.17650444170424
ONEWEB-0614             
1 55156U 23004S   26190.96791617  .00000559  00000+0  15412-2 0  9998
2 55156  87.8875  16.5402 0001835  82.3850 277.7486 13.11416293168825
ONEWEB-0616             
1 55157U 23004T   26191.45543027  .00000065  00000+0  13451-3 0  9998
2 55157  87.9139   1.2384 0001530 122.0537 238.0743 13.17650400170764
ONEWEB-0617             
1 55158U 23004U   26190.95604343  .00000366  00000+0  99783-3 0  9998
2 55158  87.8881  16.5354 0002058  76.0790 284.0566 13.11419054168841
ONEWEB-0618             
1 55159U 23004V   26190.67473387  .00003405  00000+0  18904-3 0  9993
2 55159  86.9101 168.5034 0011345 195.9411 164.1474 15.13343997185661
ONEWEB-0619             
1 55160U 23004W   26190.50032399 -.00000019  00000+0 -80968-4 0  9991
2 55160  87.9144   1.4110 0001475  83.0001 277.1298 13.17650386170530
ONEWEB-0620             
1 55161U 23004X   26190.49317521  .00000255  00000+0  68406-3 0  9995
2 55161  87.8875  16.6343 0002109  91.1503 268.9867 13.11418406168759
ONEWEB-0621             
1 55162U 23004Y   26190.97808796  .00000321  00000+0  86947-3 0  9992
2 55162  87.8884  16.5290 0001772  81.3578 278.7750 13.11414664168794
ONEWEB-0622             
1 55163U 23004Z   26190.98317349  .00000136  00000+0  34660-3 0  9992
2 55163  87.8885  16.5308 0002329  74.6175 285.5210 13.11414584168780
ONEWEB-0623             
1 55164U 23004AA  26191.40649129  .00000106  00000+0  23896-3 0  9991
2 55164  87.9131   1.2586 0001833  66.2738 293.8585 13.17648347170643
ONEWEB-0624             
1 55165U 23004AB  26190.37170446 -.00000146  00000+0 -43836-3 0  9990
2 55165  87.8960 346.1696 0001790  90.8806 269.2528 13.12928257170984
ONEWEB-0625             
1 55166U 23004AC  26191.47230456  .00000044  00000+0  80502-4 0  9998
2 55166  87.9136   1.2416 0001733  94.7188 265.4141 13.17650416170649
ONEWEB-0626             
1 55167U 23004AD  26190.70283685  .00000046  00000+0  86127-4 0  9997
2 55167  87.9131   1.3945 0002059  96.3665 263.7702 13.17650516170547
ONEWEB-0627             
1 55168U 23004AE  26191.45037157  .00000019  00000+0  15320-4 0  9999
2 55168  87.9137   1.2458 0001820  76.4817 283.6517 13.17648052170643
ONEWEB-0628             
1 55169U 23004AF  26190.36133398  .00000184  00000+0  47665-3 0  9992
2 55169  87.8962 346.2436 0001664  74.3322 285.7990 13.12441889170946
ONEWEB-0629             
1 55170U 23004AG  26191.42590574  .00000046  00000+0  84601-4 0  9994
2 55170  87.9135   1.2465 0001568  87.0144 273.1167 13.17649495170649
ONEWEB-0631             
1 55171U 23004AH  26191.31969914  .00000018  00000+0  13325-4 0  9995
2 55171  87.9192 330.8355 0002365  92.0607 268.0796 13.18686612172723
ONEWEB-0709             
1 55172U 23004AJ  26190.48300018 -.00000204  00000+0 -61140-3 0  9993
2 55172  87.8875  16.6387 0002544 103.0814 257.0598 13.11417922168796
ONEWEB-0710             
1 55173U 23004AK  26190.75681735  .00000033  00000+0  53045-4 0  9996
2 55173  87.9136   1.3750 0001904  87.2591 272.8758 13.17647297170553
ONEWEB-0711             
1 55174U 23004AL  26191.44603798  .00000055  00000+0  11919-3 0  9994
2 55174  87.8867  16.4355 0001985  69.2301 290.9040 13.11414386168883
ONEWEB-0713             
1 55175U 23004AM  26191.46468305 -.00000522  00000+0 -15085-2 0  9998
2 55175  87.8880  16.4332 0001973  78.0141 282.1208 13.11416151168871
ONEWEB-0715             
1 55176U 23004AN  26191.45959613 -.00000470  00000+0 -13627-2 0  9997
2 55176  87.8878  16.4338 0002467  94.1665 265.9745 13.11415350168914
ONEWEB-0716             
1 55177U 23004AP  26191.43349219  .00000084  00000+0  18217-3 0  9991
2 55177  87.9134   1.2430 0001726  97.8063 262.3265 13.17647567170649
ONEWEB-0717             
1 55178U 23004AQ  26190.73319817 -.00000037  00000+0 -12727-3 0  9995
2 55178  87.9145   1.3723 0002200  78.5045 281.6333 13.17649725170606
ONEWEB-0719             
1 55179U 23004AR  26191.42674330  .00000042  00000+0  74792-4 0  9992
2 55179  87.9146   1.2147 0001659  93.2731 266.8590 13.17650420170648
ONEWEB-0530             
1 55796U 23029A   26191.19574795  .00000019  00000+0  14782-4 0  9999
2 55796  87.9180 269.8821 0001923  87.5794 272.5559 13.20772608164189
